IRIDIUM 155             
1 43573U 18061E   24351.70729592  .00000394  00000+0  13352-3 0  9996
2 43573  86.3956 285.4494 0001887  79.4726 280.6682 14.34219443334889
IRIDIUM 154             
1 43574U 18061F   24351.82780021  .00000614  00000+0  21227-3 0  9999
2 43574  86.3963 285.5055 0002249  85.7678 274.3774 14.34218796334951
IRIDIUM 163             
1 43575U 18061G   24352.08785286  .00000094  00000+0  26360-4 0  9993
2 43575  86.3960 285.3297 0002110  80.3549 279.7885 14.34218164334962
IRIDIUM 156             
1 43576U 18061H   24352.06248349  .00000579  00000+0  19957-3 0  9997
2 43576  86.3958 285.3468 0001857  82.8688 277.2718 14.34213011334940
IRIDIUM 164             
1 43577U 18061J   24351.83414784  .00000554  00000+0  19057-3 0  9994
2 43577  86.3960 285.4739 0002140  91.8209 268.3232 14.34220308334962
IRIDIUM 159             
1 43578U 18061K   24351.80243585  .00000910  00000+0  31784-3 0  9998
2 43578  86.3962 285.4352 0002275  84.7520 275.3936 14.34219085334927
IRIDIUM 180             
1 43922U 19002A   24351.94147441  .00000553  00000+0  19024-3 0  9992
2 43922  86.3986 222.2524 0001992  84.3932 275.7491 14.34219674310551
IRIDIUM 176             
1 43923U 19002B   24352.08693555  .00001955  00000+0  30601-3 0  9992
2 43923  86.6114 222.1989 0003005  74.5752 285.5797 14.72266893318755
IRIDIUM 168             
1 43924U 19002C   24351.93512973  .00000548  00000+0  18846-3 0  9994
2 43924  86.3988 222.3169 0002022  85.4351 274.7076 14.34215827310535
IRIDIUM 173             
1 43925U 19002D   24351.92244077  .00000173  00000+0  54679-4 0  9990
2 43925  86.3987 222.2336 0001996  81.6631 278.4791 14.34218342310516
IRIDIUM 169             
1 43926U 19002E   24352.12656385  .00000764  00000+0  24329-3 0  9997
2 43926  86.4229 253.7610 0002311  38.3637 321.7725 14.38607917311578
IRIDIUM 172             
1 43927U 19002F   24351.91609828  .00000205  00000+0  66184-4 0  9990
2 43927  86.3985 222.2424 0002131  85.6813 274.4626 14.34218929310527
IRIDIUM 175             
1 43928U 19002G   24352.01360016  .00000736  00000+0  11279-3 0  9999
2 43928  86.1524 185.0991 0000741  57.2364 302.8924 14.72234009318738
IRIDIUM 171             
1 43929U 19002H   24352.10637545  .00000090  00000+0  25123-4 0  9991
2 43929  86.3994 222.4086 0001771  96.5407 263.5991 14.34218253310540
IRIDIUM 170             
1 43930U 19002J   24351.88920332  .00001878  00000+0  29378-3 0  9996
2 43930  86.6115 222.2870 0002268  81.6406 278.5068 14.72262767318736
IRIDIUM 167             
1 43931U 19002K   24351.68141317  .00000377  00000+0  12772-3 0  9996
2 43931  86.3987 222.3582 0001577  85.7518 274.3858 14.34216350310483
IRIDIUM 181             
1 56726U 23068S   24351.82540943  .00000873  00000+0  25223-3 0  9999
2 56726  86.6862 284.6437 0002102  94.8245 265.3196 14.43557286 83485
IRIDIUM 177             
1 56727U 23068T   24351.61437738  .00002736  00000+0  35658-3 0  9997
2 56727  86.1984 228.7252 0002063  80.0223 280.1231 14.80234708 85365
IRIDIUM 174             
1 56728U 23068U   24351.94693835  .00002705  00000+0  35236-3 0  9994
2 56728  86.1991 228.6858 0002214  94.4053 265.7421 14.80244287 85412
IRIDIUM 178             
1 56729U 23068V   24351.73873307  .00003116  00000+0  40654-3 0  9993
2 56729  86.5783 254.8851 0002316 100.0771 260.0711 14.80236145 85384
IRIDIUM 179             
1 56730U 23068W   24351.86849760  .00003060  00000+0  39930-3 0  9998
2 56730  86.6791 261.2646 0002514  85.7025 274.4484 14.80225991 85407
